[Satellite]
VERSION=1.1
NAME=GOES 7 [-]
NICKNAME=GOES 7 [-]
TLE1=1 17561U 87022A   15055.44395188  .00000042  00000-0  00000+0 0  9992
TLE2=2 17561  14.8724  14.9331 0001821 293.7906 237.2241  0.99893411 85713
